[
  {
    "PLAYERNO": 25,
    "NAME": "Leutgeb",
    "INITIALS": "EL",
    "YEAR_OF_BIRTH": 1996,
    "SEX": "M",
    "YEAR_JOINED": 2021,
    "STREET": "Birkenstraße",
    "HOUSENO": "6",
    "POSTCODE": "4600",
    "TOWN": "Wels",
    "PHONENO": "660-123456",
    "LEAGUENO": "7777"
  },
  {
    "PLAYERNO": 6,
    "NAME": "Parmenter",
    "INITIALS": "R",
    "YEAR_OF_BIRTH": 1964,
    "SEX": "M",
    "YEAR_JOINED": 1977,
    "STREET": "Haseltine Lane",
    "HOUSENO": "80",
    "POSTCODE": "1234KK",
    "TOWN": "Stratford",
    "PHONENO": "070-476537",
    "LEAGUENO": "8467"
  },
  {
    "PLAYERNO": 44,
    "NAME": "Baker",
    "INITIALS": "E",
    "YEAR_OF_BIRTH": 1963,
    "SEX": "M",
    "YEAR_JOINED": 1980,
    "STREET": "Lewis Street",
    "HOUSENO": "23",
    "POSTCODE": "4444LJ",
    "TOWN": "Inglewood",
    "PHONENO": "070-368753",
    "LEAGUENO": "1124"
  },
  {
    "PLAYERNO": 83,
    "NAME": "Hope",
    "INITIALS": "PK",
    "YEAR_OF_BIRTH": 1956,
    "SEX": "M",
    "YEAR_JOINED": 1982,
    "STREET": "Magdalena Road",
    "HOUSENO": "16A",
    "POSTCODE": "1812UP",
    "TOWN": "Stratford",
    "PHONENO": "070-353548",
    "LEAGUENO": "1608"
  },
  {
    "PLAYERNO": 2,
    "NAME": "Everett",
    "INITIALS": "R",
    "YEAR_OF_BIRTH": 1948,
    "SEX": "M",
    "YEAR_JOINED": 1975,
    "STREET": "Stoney Road",
    "HOUSENO": "43",
    "POSTCODE": "3575NH",
    "TOWN": "Stratford",
    "PHONENO": "070-237893",
    "LEAGUENO": "2411"
  },
  {
    "PLAYERNO": 27,
    "NAME": "Collins",
    "INITIALS": "DD",
    "YEAR_OF_BIRTH": 1964,
    "SEX": "W",
    "YEAR_JOINED": 1983,
    "STREET": "Long Drive",
    "HOUSENO": "804",
    "POSTCODE": "8457DK",
    "TOWN": "Eltham",
    "PHONENO": "079-234857",
    "LEAGUENO": "2513"
  },
  {
    "PLAYERNO": 104,
    "NAME": "Moorman",
    "INITIALS": "D",
    "YEAR_OF_BIRTH": 1970,
    "SEX": "W",
    "YEAR_JOINED": 1984,
    "STREET": "Stout Street",
    "HOUSENO": "65",
    "POSTCODE": "9437AO",
    "TOWN": "Eltham",
    "PHONENO": "079-987571",
    "LEAGUENO": "7060"
  },
  {
    "PLAYERNO": 7,
    "NAME": "Wise",
    "INITIALS": "GWS",
    "YEAR_OF_BIRTH": 1963,
    "SEX": "M",
    "YEAR_JOINED": 1981,
    "STREET": "Edgecombe Way",
    "HOUSENO": "39",
    "POSTCODE": "9758VB",
    "TOWN": "Stratford",
    "PHONENO": "070-347689",
    "LEAGUENO": null
  },
  {
    "PLAYERNO": 57,
    "NAME": "Brown",
    "INITIALS": "M",
    "YEAR_OF_BIRTH": 1971,
    "SEX": "M",
    "YEAR_JOINED": 1985,
    "STREET": "Edgecombe Way",
    "HOUSENO": "16",
    "POSTCODE": "4377CB",
    "TOWN": "Stratford",
    "PHONENO": "070-473458",
    "LEAGUENO": "6409"
  },
  {
    "PLAYERNO": 39,
    "NAME": "Bishop",
    "INITIALS": "D",
    "YEAR_OF_BIRTH": 1956,
    "SEX": "M",
    "YEAR_JOINED": 1980,
    "STREET": "Eaton Square",
    "HOUSENO": "78",
    "POSTCODE": "9629CD",
    "TOWN": "Stratford",
    "PHONENO": "070-393435",
    "LEAGUENO": null
  },
  {
    "PLAYERNO": 112,
    "NAME": "Bailey",
    "INITIALS": "IP",
    "YEAR_OF_BIRTH": 1963,
    "SEX": "W",
    "YEAR_JOINED": 1984,
    "STREET": "Vixen Road",
    "HOUSENO": "8",
    "POSTCODE": "6392LK",
    "TOWN": "Plymouth",
    "PHONENO": "010-548745",
    "LEAGUENO": "1319"
  },
  {
    "PLAYERNO": 8,
    "NAME": "Newcastle",
    "INITIALS": "B",
    "YEAR_OF_BIRTH": 1962,
    "SEX": "W",
    "YEAR_JOINED": 1980,
    "STREET": "Station Road",
    "HOUSENO": "4",
    "POSTCODE": "6584RQ",
    "TOWN": "Inglewood",
    "PHONENO": "070-458458",
    "LEAGUENO": "2983"
  },
  {
    "PLAYERNO": 100,
    "NAME": "Parmenter",
    "INITIALS": "P",
    "YEAR_OF_BIRTH": 1963,
    "SEX": "M",
    "YEAR_JOINED": 1979,
    "STREET": "Haseltine Lane",
    "HOUSENO": "80",
    "POSTCODE": "1234KK",
    "TOWN": "Stratford",
    "PHONENO": "070-494593",
    "LEAGUENO": "6524"
  },
  {
    "PLAYERNO": 28,
    "NAME": "Collins",
    "INITIALS": "C",
    "YEAR_OF_BIRTH": 1963,
    "SEX": "W",
    "YEAR_JOINED": 1979,
    "STREET": "Old Main Road",
    "HOUSENO": "10",
    "POSTCODE": "1294QK",
    "TOWN": "Midhurst",
    "PHONENO": "071-659599",
    "LEAGUENO": null
  },
  {
    "PLAYERNO": 95,
    "NAME": "Miller",
    "INITIALS": "P",
    "YEAR_OF_BIRTH": 1963,
    "SEX": "M",
    "YEAR_JOINED": 1972,
    "STREET": "Haseltine Lane",
    "HOUSENO": "80",
    "POSTCODE": "1234KK",
    "TOWN": "Stratford",
    "PHONENO": "070-867564",
    "LEAGUENO": null
  },
  {
    "PLAYERNO": 25,
    "NAME": "Leutgeb",
    "INITIALS": "EL",
    "YEAR_OF_BIRTH": 1996,
    "SEX": "M",
    "YEAR_JOINED": 2021,
    "STREET": "Birkenstraße",
    "HOUSENO": "6",
    "POSTCODE": "4600",
    "TOWN": "Wels",
    "PHONENO": "660-123456",
    "LEAGUENO": "7777"
  }
]